DELTA 2 R/B(1)          
1 20453U 90008B   26021.37111249  .00067210  00000+0  95505-3 0  9992
2 20453  35.6060 123.8550 0100841 180.8329 179.2248 15.49412232918773
COSMOS 2058             
1 20465U 90010A   26021.23541475  .00008635  00000+0  51654-3 0  9994
2 20465  82.4665  94.1753 0011045 131.5236 228.6944 15.10871293935077
SL-14 R/B               
1 20466U 90010B   26021.27126597  .00000896  00000+0  10567-3 0  9992
2 20466  82.5046 311.9237 0021399  95.5692 264.7964 14.83517678921450
SL-14 R/B               
1 20511U 90018B   26021.37835017  .00000747  00000+0  90913-4 0  9995
2 20511  82.5205 267.3197 0014976 246.0234 113.9412 14.82093344915572
HST                     
1 20580U 90037B   26021.23272574  .00014799  00000+0  50735-3 0  9999
2 20580  28.4681   3.5515 0001639 306.9911  53.0534 15.28654530766045
SL-16 R/B               
1 20625U 90046B   26021.47499423 -.00000114  00000+0 -34148-4 0  9998
2 20625  70.9995  37.0715 0013834   5.6699 354.4578 14.15008022841713
COSMOS 2084             
1 20663U 90055A   26021.49626903  .00006097  00000+0  43486-3 0  9995
2 20663  62.7909 136.5004 0024860 180.8373 179.2690 15.05311797929217
SL-6 R/B(2)             
1 20666U 90055D   26021.48176695  .00004642  00000+0  35374-3 0  9996
2 20666  62.7835  54.3555 0017933 331.7704  28.2422 15.03303693931093
SL-8 R/B                
1 20775U 90078B   26021.24169082  .00032099  00000+0  96528-3 0  9993
2 20775  82.9055 293.9219 0368454 172.9780 187.6816 14.87351835802249
SL-8 R/B                
1 21088U 91006B   26021.47662659 -.00000007  00000+0 -22929-4 0  9997
2 21088  82.9410 205.1531 0022775 164.5657 224.4442 13.77491727757570
OKEAN-3                 
1 21397U 91039A   26021.46111210  .00006409  00000+0  45588-3 0  9992
2 21397  82.5152  22.5842 0015911 126.0291 234.2413 15.04397321857934
COSMOS 2151             
1 21422U 91042A   26021.45397019  .00004392  00000+0  35175-3 0  9997
2 21422  82.4990 129.2302 0011902 213.6268 146.4202 14.99889639856111
