CCSDS_OMM_VERS = 2.0
CREATION_DATE  = 
ORIGINATOR     = 

OBJECT_NAME    = DELTA 2 R/B(1)
OBJECT_ID      = 1990-008B
CENTER_NAME    = EARTH
REF_FRAME      = TEME
TIME_SYSTEM    = UTC
MEAN_ELEMENT_THEORY = SGP/SGP4

EPOCH          = 2026-01-21T08:54:24.119136
MEAN_MOTION    = 15.49412232
ECCENTRICITY   = .0100841
INCLINATION    = 35.6060
RA_OF_ASC_NODE = 123.8550
ARG_OF_PERICENTER = 180.8329
MEAN_ANOMALY   = 179.2248

EPHEMERIS_TYPE = 0
CLASSIFICATION_TYPE = U
NORAD_CAT_ID   = 20453
ELEMENT_SET_NO = 999
REV_AT_EPOCH   = 91877
BSTAR          = .95505E-3
MEAN_MOTION_DOT = .6721E-3
MEAN_MOTION_DDOT = 0

CCSDS_OMM_VERS = 2.0
CREATION_DATE  = 
ORIGINATOR     = 

OBJECT_NAME    = COSMOS 2058
OBJECT_ID      = 1990-010A
CENTER_NAME    = EARTH
REF_FRAME      = TEME
TIME_SYSTEM    = UTC
MEAN_ELEMENT_THEORY = SGP/SGP4

EPOCH          = 2026-01-21T05:38:59.834400
MEAN_MOTION    = 15.10871293
ECCENTRICITY   = .0011045
INCLINATION    = 82.4665
RA_OF_ASC_NODE = 94.1753
ARG_OF_PERICENTER = 131.5236
MEAN_ANOMALY   = 228.6944

EPHEMERIS_TYPE = 0
CLASSIFICATION_TYPE = U
NORAD_CAT_ID   = 20465
ELEMENT_SET_NO = 999
REV_AT_EPOCH   = 93507
BSTAR          = .51654E-3
MEAN_MOTION_DOT = .8635E-4
MEAN_MOTION_DDOT = 0

CCSDS_OMM_VERS = 2.0
CREATION_DATE  = 
ORIGINATOR     = 

OBJECT_NAME    = SL-14 R/B
OBJECT_ID      = 1990-010B
CENTER_NAME    = EARTH
REF_FRAME      = TEME
TIME_SYSTEM    = UTC
MEAN_ELEMENT_THEORY = SGP/SGP4

EPOCH          = 2026-01-21T06:30:37.379808
MEAN_MOTION    = 14.83517678
ECCENTRICITY   = .0021399
INCLINATION    = 82.5046
RA_OF_ASC_NODE = 311.9237
ARG_OF_PERICENTER = 95.5692
MEAN_ANOMALY   = 264.7964

EPHEMERIS_TYPE = 0
CLASSIFICATION_TYPE = U
NORAD_CAT_ID   = 20466
ELEMENT_SET_NO = 999
REV_AT_EPOCH   = 92145
BSTAR          = .10567E-3
MEAN_MOTION_DOT = .896E-5
MEAN_MOTION_DDOT = 0

CCSDS_OMM_VERS = 2.0
CREATION_DATE  = 
ORIGINATOR     = 

OBJECT_NAME    = SL-14 R/B
OBJECT_ID      = 1990-018B
CENTER_NAME    = EARTH
REF_FRAME      = TEME
TIME_SYSTEM    = UTC
MEAN_ELEMENT_THEORY = SGP/SGP4

EPOCH          = 2026-01-21T09:04:49.454688
MEAN_MOTION    = 14.82093344
ECCENTRICITY   = .0014976
INCLINATION    = 82.5205
RA_OF_ASC_NODE = 267.3197
ARG_OF_PERICENTER = 246.0234
MEAN_ANOMALY   = 113.9412

EPHEMERIS_TYPE = 0
CLASSIFICATION_TYPE = U
NORAD_CAT_ID   = 20511
ELEMENT_SET_NO = 999
REV_AT_EPOCH   = 91557
BSTAR          = .90913E-4
MEAN_MOTION_DOT = .747E-5
MEAN_MOTION_DDOT = 0

CCSDS_OMM_VERS = 2.0
CREATION_DATE  = 
ORIGINATOR     = 

OBJECT_NAME    = HST
OBJECT_ID      = 1990-037B
CENTER_NAME    = EARTH
REF_FRAME      = TEME
TIME_SYSTEM    = UTC
MEAN_ELEMENT_THEORY = SGP/SGP4

EPOCH          = 2026-01-21T05:35:07.503936
MEAN_MOTION    = 15.28654530
ECCENTRICITY   = .0001639
INCLINATION    = 28.4681
RA_OF_ASC_NODE = 3.5515
ARG_OF_PERICENTER = 306.9911
MEAN_ANOMALY   = 53.0534

EPHEMERIS_TYPE = 0
CLASSIFICATION_TYPE = U
NORAD_CAT_ID   = 20580
ELEMENT_SET_NO = 999
REV_AT_EPOCH   = 76604
BSTAR          = .50735E-3
MEAN_MOTION_DOT = .14799E-3
MEAN_MOTION_DDOT = 0

CCSDS_OMM_VERS = 2.0
CREATION_DATE  = 
ORIGINATOR     = 

OBJECT_NAME    = SL-16 R/B
OBJECT_ID      = 1990-046B
CENTER_NAME    = EARTH
REF_FRAME      = TEME
TIME_SYSTEM    = UTC
MEAN_ELEMENT_THEORY = SGP/SGP4

EPOCH          = 2026-01-21T11:23:59.501472
MEAN_MOTION    = 14.15008022
ECCENTRICITY   = .0013834
INCLINATION    = 70.9995
RA_OF_ASC_NODE = 37.0715
ARG_OF_PERICENTER = 5.6699
MEAN_ANOMALY   = 354.4578

EPHEMERIS_TYPE = 0
CLASSIFICATION_TYPE = U
NORAD_CAT_ID   = 20625
ELEMENT_SET_NO = 999
REV_AT_EPOCH   = 84171
BSTAR          = -.34148E-4
MEAN_MOTION_DOT = -.114E-5
MEAN_MOTION_DDOT = 0

CCSDS_OMM_VERS = 2.0
CREATION_DATE  = 
ORIGINATOR     = 

OBJECT_NAME    = COSMOS 2084
OBJECT_ID      = 1990-055A
CENTER_NAME    = EARTH
REF_FRAME      = TEME
TIME_SYSTEM    = UTC
MEAN_ELEMENT_THEORY = SGP/SGP4

EPOCH          = 2026-01-21T11:54:37.644192
MEAN_MOTION    = 15.05311797
ECCENTRICITY   = .002486
INCLINATION    = 62.7909
RA_OF_ASC_NODE = 136.5004
ARG_OF_PERICENTER = 180.8373
MEAN_ANOMALY   = 179.2690

EPHEMERIS_TYPE = 0
CLASSIFICATION_TYPE = U
NORAD_CAT_ID   = 20663
ELEMENT_SET_NO = 999
REV_AT_EPOCH   = 92921
BSTAR          = .43486E-3
MEAN_MOTION_DOT = .6097E-4
MEAN_MOTION_DDOT = 0

CCSDS_OMM_VERS = 2.0
CREATION_DATE  = 
ORIGINATOR     = 

OBJECT_NAME    = SL-6 R/B(2)
OBJECT_ID      = 1990-055D
CENTER_NAME    = EARTH
REF_FRAME      = TEME
TIME_SYSTEM    = UTC
MEAN_ELEMENT_THEORY = SGP/SGP4

EPOCH          = 2026-01-21T11:33:44.664480
MEAN_MOTION    = 15.03303693
ECCENTRICITY   = .0017933
INCLINATION    = 62.7835
RA_OF_ASC_NODE = 54.3555
ARG_OF_PERICENTER = 331.7704
MEAN_ANOMALY   = 28.2422

EPHEMERIS_TYPE = 0
CLASSIFICATION_TYPE = U
NORAD_CAT_ID   = 20666
ELEMENT_SET_NO = 999
REV_AT_EPOCH   = 93109
BSTAR          = .35374E-3
MEAN_MOTION_DOT = .4642E-4
MEAN_MOTION_DDOT = 0

CCSDS_OMM_VERS = 2.0
CREATION_DATE  = 
ORIGINATOR     = 

OBJECT_NAME    = SL-8 R/B
OBJECT_ID      = 1990-078B
CENTER_NAME    = EARTH
REF_FRAME      = TEME
TIME_SYSTEM    = UTC
MEAN_ELEMENT_THEORY = SGP/SGP4

EPOCH          = 2026-01-21T05:48:02.086848
MEAN_MOTION    = 14.87351835
ECCENTRICITY   = .0368454
INCLINATION    = 82.9055
RA_OF_ASC_NODE = 293.9219
ARG_OF_PERICENTER = 172.9780
MEAN_ANOMALY   = 187.6816

EPHEMERIS_TYPE = 0
CLASSIFICATION_TYPE = U
NORAD_CAT_ID   = 20775
ELEMENT_SET_NO = 999
REV_AT_EPOCH   = 80224
BSTAR          = .96528E-3
MEAN_MOTION_DOT = .32099E-3
MEAN_MOTION_DDOT = 0

CCSDS_OMM_VERS = 2.0
CREATION_DATE  = 
ORIGINATOR     = 

OBJECT_NAME    = SL-8 R/B
OBJECT_ID      = 1991-006B
CENTER_NAME    = EARTH
REF_FRAME      = TEME
TIME_SYSTEM    = UTC
MEAN_ELEMENT_THEORY = SGP/SGP4

EPOCH          = 2026-01-21T11:26:20.537376
MEAN_MOTION    = 13.77491727
ECCENTRICITY   = .0022775
INCLINATION    = 82.9410
RA_OF_ASC_NODE = 205.1531
ARG_OF_PERICENTER = 164.5657
MEAN_ANOMALY   = 224.4442

EPHEMERIS_TYPE = 0
CLASSIFICATION_TYPE = U
NORAD_CAT_ID   = 21088
ELEMENT_SET_NO = 999
REV_AT_EPOCH   = 75757
BSTAR          = -.22929E-4
MEAN_MOTION_DOT = -.7E-7
MEAN_MOTION_DDOT = 0

CCSDS_OMM_VERS = 2.0
CREATION_DATE  = 
ORIGINATOR     = 

OBJECT_NAME    = OKEAN-3
OBJECT_ID      = 1991-039A
CENTER_NAME    = EARTH
REF_FRAME      = TEME
TIME_SYSTEM    = UTC
MEAN_ELEMENT_THEORY = SGP/SGP4

EPOCH          = 2026-01-21T11:04:00.085440
MEAN_MOTION    = 15.04397321
ECCENTRICITY   = .0015911
INCLINATION    = 82.5152
RA_OF_ASC_NODE = 22.5842
ARG_OF_PERICENTER = 126.0291
MEAN_ANOMALY   = 234.2413

EPHEMERIS_TYPE = 0
CLASSIFICATION_TYPE = U
NORAD_CAT_ID   = 21397
ELEMENT_SET_NO = 999
REV_AT_EPOCH   = 85793
BSTAR          = .45588E-3
MEAN_MOTION_DOT = .6409E-4
MEAN_MOTION_DDOT = 0

CCSDS_OMM_VERS = 2.0
CREATION_DATE  = 
ORIGINATOR     = 

OBJECT_NAME    = COSMOS 2151
OBJECT_ID      = 1991-042A
CENTER_NAME    = EARTH
REF_FRAME      = TEME
TIME_SYSTEM    = UTC
MEAN_ELEMENT_THEORY = SGP/SGP4

EPOCH          = 2026-01-21T10:53:43.024416
MEAN_MOTION    = 14.99889639
ECCENTRICITY   = .0011902
INCLINATION    = 82.4990
RA_OF_ASC_NODE = 129.2302
ARG_OF_PERICENTER = 213.6268
MEAN_ANOMALY   = 146.4202

EPHEMERIS_TYPE = 0
CLASSIFICATION_TYPE = U
NORAD_CAT_ID   = 21422
ELEMENT_SET_NO = 999
REV_AT_EPOCH   = 85611
BSTAR          = .35175E-3
MEAN_MOTION_DOT = .4392E-4
MEAN_MOTION_DDOT = 0

